QIANFAN-9               
1 60387U 24140J   25343.12935654  .00000129  00000+0  18114-3 0  9996
2 60387  88.9760 299.7101 0015049 202.6757 157.3731 13.50980653 66842
QIANFAN-10              
1 60388U 24140K   25343.13354635  .00000136  00000+0  19209-3 0  9996
2 60388  88.9770 299.0564 0014226 178.1329 181.9878 13.50981173 66975
QIANFAN-11              
1 60389U 24140L   25343.17062111  .00000133  00000+0  18755-3 0  9998
2 60389  88.9696 299.6425 0013112 201.3824 158.6780 13.50977431 66635
QIANFAN-12              
1 60390U 24140M   25343.19111691  .00000122  00000+0  16976-3 0  9991
2 60390  88.9739 299.6822 0011711 209.7491 150.2996 13.50978239 66769
QIANFAN-13              
1 60391U 24140N   25343.16231499  .00000133  00000+0  18782-3 0  9997
2 60391  88.9751 299.7847 0011470 212.7448 147.2994 13.50978744 66787
QIANFAN-14              
1 60392U 24140P   25343.18690810  .00000107  00000+0  14742-3 0  9999
2 60392  88.9730 299.6805 0015140 214.0272 145.9909 13.50978233 66791
QIANFAN-15              
1 60393U 24140Q   25343.12112949  .00000117  00000+0  16198-3 0  9994
2 60393  88.9754 299.6429 0011326 197.2199 162.8569 13.50977024 66777
QIANFAN-16              
1 60394U 24140R   25343.18297887  .00000121  00000+0  16950-3 0  9997
2 60394  88.9757 299.7566 0012998 217.6802 142.3439 13.50982393 66693
